<?xml version="1.0" encoding="UTF-8" standalone="no" ?><gpx xmlns="http://www.topografix.com/GPX/1/1" xmlns:gpxx="http://www.garmin.com/xmlschemas/GpxExtensions/v3" xmlns:wptx1="http://www.garmin.com/xmlschemas/WaypointExtension/v1" xmlns:gpxtpx="http://www.garmin.com/xmlschemas/TrackPointExtension/v1" creator="GPSMAP 67i" version="1.1" xmlns:xsi="http://www.w3.org/2001/XMLSchema-instance" xsi:schemaLocation="http://www.topografix.com/GPX/1/1 http://www.topografix.com/GPX/1/1/gpx.xsd http://www.garmin.com/xmlschemas/GpxExtensions/v3 http://www8.garmin.com/xmlschemas/GpxExtensionsv3.xsd http://www.garmin.com/xmlschemas/TrackStatsExtension/v1 http://www8.garmin.com/xmlschemas/TrackStatsExtension.xsd http://www.garmin.com/xmlschemas/WaypointExtension/v1 http://www8.garmin.com/xmlschemas/WaypointExtensionv1.xsd http://www.garmin.com/xmlschemas/TrackPointExtension/v1 http://www.garmin.com/xmlschemas/TrackPointExtensionv1.xsd"><metadata><link href="http://www.garmin.com"><text>Garmin International</text></link><time>2023-09-23T15:51:36Z</time></metadata><wpt lat="45.167274" lon="-72.372021"><ele>156.233109</ele><time>2023-09-23T15:51:35Z</time><name>Ouths</name><sym>Residence</sym></wpt><wpt lat="45.166639" lon="-72.371345"><ele>155.561295</ele><time>2023-09-23T15:53:07Z</time><name>Ruin</name><sym>Residence</sym></wpt><wpt lat="45.166079" lon="-72.374144"><ele>222.113281</ele><time>2023-09-23T15:59:55Z</time><name>More to west</name><sym>Flag, Green</sym></wpt><wpt lat="45.166061" lon="-72.374153"><ele>222.191406</ele><time>2023-09-23T16:00:32Z</time><name>Woods</name><sym>Flag, Blue</sym></wpt></gpx>