<?xml version="1.0" encoding="UTF-8" standalone="no" ?><gpx xmlns="http://www.topografix.com/GPX/1/1" xmlns:gpxx="http://www.garmin.com/xmlschemas/GpxExtensions/v3" xmlns:wptx1="http://www.garmin.com/xmlschemas/WaypointExtension/v1" xmlns:gpxtpx="http://www.garmin.com/xmlschemas/TrackPointExtension/v1" creator="GPSMAP 67i" version="1.1" xmlns:xsi="http://www.w3.org/2001/XMLSchema-instance" xsi:schemaLocation="http://www.topografix.com/GPX/1/1 http://www.topografix.com/GPX/1/1/gpx.xsd http://www.garmin.com/xmlschemas/GpxExtensions/v3 http://www8.garmin.com/xmlschemas/GpxExtensionsv3.xsd http://www.garmin.com/xmlschemas/TrackStatsExtension/v1 http://www8.garmin.com/xmlschemas/TrackStatsExtension.xsd http://www.garmin.com/xmlschemas/WaypointExtension/v1 http://www8.garmin.com/xmlschemas/WaypointExtensionv1.xsd http://www.garmin.com/xmlschemas/TrackPointExtension/v1 http://www.garmin.com/xmlschemas/TrackPointExtensionv1.xsd"><metadata><link href="http://www.garmin.com"><text>Garmin International</text></link><time>2023-09-24T15:04:43Z</time></metadata><wpt lat="45.166510" lon="-72.377803"><ele>192.398865</ele><time>2023-09-24T15:04:43Z</time><name>Faint tr to west</name><sym>Flag, Green</sym></wpt><wpt lat="45.164863" lon="-72.380754"><ele>214.130051</ele><time>2023-09-24T15:10:33Z</time><name>Keeps going clear atv</name><sym>Flag, Green</sym></wpt><wpt lat="45.164375" lon="-72.376905"><ele>197.148193</ele><time>2023-09-24T15:16:08Z</time><name>Trash pile</name><sym>Flag, Green</sym></wpt></gpx>